ONEWEB-0594             
1 54660U 22166U   26025.21312425  .00000026  00000+0  32046-4 0  9999
2 54660  87.9204 272.5189 0001460  80.4962 279.6337 13.21825231152673
ONEWEB-0595             
1 54661U 22166V   26025.11438255  .00000080  00000+0  16175-3 0  9993
2 54661  87.9205 272.5105 0001481  85.2908 274.8395 13.21826444152633
ONEWEB-0596             
1 54662U 22166W   26025.23944480 -.00000049  00000+0 -15047-3 0  9993
2 54662  87.9203 272.5030 0001552  82.4439 277.6871 13.21825082152655
ONEWEB-0597             
1 54663U 22166X   26025.22135737  .00000207  00000+0  47080-3 0  9996
2 54663  87.9206 272.5118 0001722  76.7720 283.3606 13.21825992152654
ONEWEB-0600             
1 54664U 22166Y   26025.12756193 -.00000034  00000+0 -11505-3 0  9994
2 54664  87.9203 272.5215 0001594  72.9583 287.1726 13.21826771152619
ONEWEB-0601             
1 54665U 22166Z   26025.11933251  .00000065  00000+0  12471-3 0  9991
2 54665  87.9205 272.5410 0001795  73.8445 286.2886 13.21826949152804
ONEWEB-0602             
1 54666U 22166AA  26025.23533319  .00000130  00000+0  28401-3 0  9999
2 54666  87.9204 272.5224 0001437  66.9421 293.1864 13.21828686152664
ONEWEB-0603             
1 54667U 22166AB  26025.24108690  .00000111  00000+0  23743-3 0  9994
2 54667  87.9213 272.4635 0001633  75.3601 284.7714 13.21828464152598
ONEWEB-0604             
1 54668U 22166AC  26025.22956972  .00000047  00000+0  83297-4 0  9996
2 54668  87.9204 272.4823 0001487  79.2824 280.8478 13.21829057152554
ONEWEB-0605             
1 54669U 22166AD  26025.22300336  .00000016  00000+0  77325-5 0  9996
2 54669  87.9203 272.5106 0002190  78.9049 281.2331 13.21825427152624
ONEWEB-0606             
1 54670U 22166AE  26025.09299817  .00000120  00000+0  25928-3 0  9990
2 54670  87.9207 272.5484 0001474  84.5517 275.5785 13.21827392152662
ONEWEB-0607             
1 54671U 22166AF  26025.21148078  .00000012  00000+0 -27212-5 0  9998
2 54671  87.9203 272.4884 0001648  73.9257 286.2058 13.21826712152654
ONEWEB-0608             
1 54672U 22166AG  26025.21806042  .00000037  00000+0  58694-4 0  9994
2 54672  87.9213 272.4781 0002071  73.1794 286.9567 13.21825053152661
ONEWEB-0610             
1 54673U 22166AH  26025.12261889 -.00000020  00000+0 -81107-4 0  9998
2 54673  87.9204 272.5257 0002097  71.6851 288.4511 13.21825333152551
ONEWEB-0611             
1 54674U 22166AJ  26025.11603572  .00000036  00000+0  54818-4 0  9991
2 54674  87.9201 272.5235 0001398  82.1041 278.0251 13.21826667152542
ONEWEB-0612             
1 54675U 22166AK  26025.05351407  .00000699  00000+0  16620-2 0  9994
2 54675  87.9205 272.5163 0001810  76.0446 284.0889 13.21826007152527
