[{"OBJECT_NAME":"ONEWEB-0594","OBJECT_ID":"2022-166U","EPOCH":"2026-01-25T05:06:53.935200","MEAN_MOTION":13.21825231,"ECCENTRICITY":0.00014607,"INCLINATION":87.9204,"RA_OF_ASC_NODE":272.5189,"ARG_OF_PERICENTER":80.4962,"MEAN_ANOMALY":279.6337,"EPHEMERIS_TYPE":0,"CLASSIFICATION_TYPE":"U","NORAD_CAT_ID":54660,"ELEMENT_SET_NO":999,"REV_AT_EPOCH":15267,"BSTAR":3.2045839e-5,"MEAN_MOTION_DOT":2.6e-7,"MEAN_MOTION_DDOT":0},{"OBJECT_NAME":"ONEWEB-0595","OBJECT_ID":"2022-166V","EPOCH":"2026-01-25T02:44:42.652320","MEAN_MOTION":13.21826444,"ECCENTRICITY":0.00014814,"INCLINATION":87.9205,"RA_OF_ASC_NODE":272.5105,"ARG_OF_PERICENTER":85.2908,"MEAN_ANOMALY":274.8395,"EPHEMERIS_TYPE":0,"CLASSIFICATION_TYPE":"U","NORAD_CAT_ID":54661,"ELEMENT_SET_NO":999,"REV_AT_EPOCH":15263,"BSTAR":0.00016174959,"MEAN_MOTION_DOT":8.0e-7,"MEAN_MOTION_DDOT":0},{"OBJECT_NAME":"ONEWEB-0596","OBJECT_ID":"2022-166W","EPOCH":"2026-01-25T05:44:48.030720","MEAN_MOTION":13.21825082,"ECCENTRICITY":0.00015529,"INCLINATION":87.9203,"RA_OF_ASC_NODE":272.503,"ARG_OF_PERICENTER":82.4439,"MEAN_ANOMALY":277.6871,"EPHEMERIS_TYPE":0,"CLASSIFICATION_TYPE":"U","NORAD_CAT_ID":54662,"ELEMENT_SET_NO":999,"REV_AT_EPOCH":15265,"BSTAR":-0.00015047449,"MEAN_MOTION_DOT":-4.9e-7,"MEAN_MOTION_DDOT":0},{"OBJECT_NAME":"ONEWEB-0597","OBJECT_ID":"2022-166X","EPOCH":"2026-01-25T05:18:45.276768","MEAN_MOTION":13.21825992,"ECCENTRICITY":0.00017225,"INCLINATION":87.9206,"RA_OF_ASC_NODE":272.5118,"ARG_OF_PERICENTER":76.772,"MEAN_ANOMALY":283.3606,"EPHEMERIS_TYPE":0,"CLASSIFICATION_TYPE":"U","NORAD_CAT_ID":54663,"ELEMENT_SET_NO":999,"REV_AT_EPOCH":15265,"BSTAR":0.00047080115,"MEAN_MOTION_DOT":2.07e-6,"MEAN_MOTION_DDOT":0},{"OBJECT_NAME":"ONEWEB-0600","OBJECT_ID":"2022-166Y","EPOCH":"2026-01-25T03:03:41.350752","MEAN_MOTION":13.21826771,"ECCENTRICITY":0.0001594,"INCLINATION":87.9203,"RA_OF_ASC_NODE":272.5215,"ARG_OF_PERICENTER":72.9583,"MEAN_ANOMALY":287.1726,"EPHEMERIS_TYPE":0,"CLASSIFICATION_TYPE":"U","NORAD_CAT_ID":54664,"ELEMENT_SET_NO":999,"REV_AT_EPOCH":15261,"BSTAR":-0.00011504882,"MEAN_MOTION_DOT":-3.4e-7,"MEAN_MOTION_DDOT":0},{"OBJECT_NAME":"ONEWEB-0601","OBJECT_ID":"2022-166Z","EPOCH":"2026-01-25T02:51:50.328864","MEAN_MOTION":13.21826949,"ECCENTRICITY":0.00017958,"INCLINATION":87.9205,"RA_OF_ASC_NODE":272.541,"ARG_OF_PERICENTER":73.8445,"MEAN_ANOMALY":286.2886,"EPHEMERIS_TYPE":0,"CLASSIFICATION_TYPE":"U","NORAD_CAT_ID":54665,"ELEMENT_SET_NO":999,"REV_AT_EPOCH":15280,"BSTAR":0.00012470741,"MEAN_MOTION_DOT":6.5e-7,"MEAN_MOTION_DDOT":0},{"OBJECT_NAME":"ONEWEB-0602","OBJECT_ID":"2022-166AA","EPOCH":"2026-01-25T05:38:52.787616","MEAN_MOTION":13.21828686,"ECCENTRICITY":0.00014373,"INCLINATION":87.9204,"RA_OF_ASC_NODE":272.5224,"ARG_OF_PERICENTER":66.9421,"MEAN_ANOMALY":293.1864,"EPHEMERIS_TYPE":0,"CLASSIFICATION_TYPE":"U","NORAD_CAT_ID":54666,"ELEMENT_SET_NO":999,"REV_AT_EPOCH":15266,"BSTAR":0.00028400575,"MEAN_MOTION_DOT":1.3e-6,"MEAN_MOTION_DDOT":0},{"OBJECT_NAME":"ONEWEB-0603","OBJECT_ID":"2022-166AB","EPOCH":"2026-01-25T05:47:09.908160","MEAN_MOTION":13.21828464,"ECCENTRICITY":0.00016339,"INCLINATION":87.9213,"RA_OF_ASC_NODE":272.4635,"ARG_OF_PERICENTER":75.3601,"MEAN_ANOMALY":284.7714,"EPHEMERIS_TYPE":0,"CLASSIFICATION_TYPE":"U","NORAD_CAT_ID":54667,"ELEMENT_SET_NO":999,"REV_AT_EPOCH":15259,"BSTAR":0.00023742586,"MEAN_MOTION_DOT":1.11e-6,"MEAN_MOTION_DDOT":0},{"OBJECT_NAME":"ONEWEB-0604","OBJECT_ID":"2022-166AC","EPOCH":"2026-01-25T05:30:34.823808","MEAN_MOTION":13.21829057,"ECCENTRICITY":0.00014874,"INCLINATION":87.9204,"RA_OF_ASC_NODE":272.4823,"ARG_OF_PERICENTER":79.2824,"MEAN_ANOMALY":280.8478,"EPHEMERIS_TYPE":0,"CLASSIFICATION_TYPE":"U","NORAD_CAT_ID":54668,"ELEMENT_SET_NO":999,"REV_AT_EPOCH":15255,"BSTAR":8.3296737e-5,"MEAN_MOTION_DOT":4.7e-7,"MEAN_MOTION_DDOT":0},{"OBJECT_NAME":"ONEWEB-0605","OBJECT_ID":"2022-166AD","EPOCH":"2026-01-25T05:21:07.490304","MEAN_MOTION":13.21825427,"ECCENTRICITY":0.00021903,"INCLINATION":87.9203,"RA_OF_ASC_NODE":272.5106,"ARG_OF_PERICENTER":78.9049,"MEAN_ANOMALY":281.2331,"EPHEMERIS_TYPE":0,"CLASSIFICATION_TYPE":"U","NORAD_CAT_ID":54669,"ELEMENT_SET_NO":999,"REV_AT_EPOCH":15262,"BSTAR":7.732494e-6,"MEAN_MOTION_DOT":1.6e-7,"MEAN_MOTION_DDOT":0},{"OBJECT_NAME":"ONEWEB-0606","OBJECT_ID":"2022-166AE","EPOCH":"2026-01-25T02:13:55.041888","MEAN_MOTION":13.21827392,"ECCENTRICITY":0.00014748,"INCLINATION":87.9207,"RA_OF_ASC_NODE":272.5484,"ARG_OF_PERICENTER":84.5517,"MEAN_ANOMALY":275.5785,"EPHEMERIS_TYPE":0,"CLASSIFICATION_TYPE":"U","NORAD_CAT_ID":54670,"ELEMENT_SET_NO":999,"REV_AT_EPOCH":15266,"BSTAR":0.0002592805,"MEAN_MOTION_DOT":1.2e-6,"MEAN_MOTION_DDOT":0},{"OBJECT_NAME":"ONEWEB-0607","OBJECT_ID":"2022-166AF","EPOCH":"2026-01-25T05:04:31.939392","MEAN_MOTION":13.21826712,"ECCENTRICITY":0.00016484,"INCLINATION":87.9203,"RA_OF_ASC_NODE":272.4884,"ARG_OF_PERICENTER":73.9257,"MEAN_ANOMALY":286.2058,"EPHEMERIS_TYPE":0,"CLASSIFICATION_TYPE":"U","NORAD_CAT_ID":54671,"ELEMENT_SET_NO":999,"REV_AT_EPOCH":15265,"BSTAR":-2.721158e-6,"MEAN_MOTION_DOT":1.2e-7,"MEAN_MOTION_DDOT":0},{"OBJECT_NAME":"ONEWEB-0608","OBJECT_ID":"2022-166AG","EPOCH":"2026-01-25T05:14:00.420288","MEAN_MOTION":13.21825053,"ECCENTRICITY":0.00020719,"INCLINATION":87.9213,"RA_OF_ASC_NODE":272.4781,"ARG_OF_PERICENTER":73.1794,"MEAN_ANOMALY":286.9567,"EPHEMERIS_TYPE":0,"CLASSIFICATION_TYPE":"U","NORAD_CAT_ID":54672,"ELEMENT_SET_NO":999,"REV_AT_EPOCH":15266,"BSTAR":5.8694431e-5,"MEAN_MOTION_DOT":3.7e-7,"MEAN_MOTION_DDOT":0},{"OBJECT_NAME":"ONEWEB-0610","OBJECT_ID":"2022-166AH","EPOCH":"2026-01-25T02:56:34.272096","MEAN_MOTION":13.21825333,"ECCENTRICITY":0.00020972,"INCLINATION":87.9204,"RA_OF_ASC_NODE":272.5257,"ARG_OF_PERICENTER":71.6851,"MEAN_ANOMALY":288.4511,"EPHEMERIS_TYPE":0,"CLASSIFICATION_TYPE":"U","NORAD_CAT_ID":54673,"ELEMENT_SET_NO":999,"REV_AT_EPOCH":15255,"BSTAR":-8.1107147e-5,"MEAN_MOTION_DOT":-2.0e-7,"MEAN_MOTION_DDOT":0},{"OBJECT_NAME":"ONEWEB-0611","OBJECT_ID":"2022-166AJ","EPOCH":"2026-01-25T02:47:05.486208","MEAN_MOTION":13.21826667,"ECCENTRICITY":0.00013981,"INCLINATION":87.9201,"RA_OF_ASC_NODE":272.5235,"ARG_OF_PERICENTER":82.1041,"MEAN_ANOMALY":278.0251,"EPHEMERIS_TYPE":0,"CLASSIFICATION_TYPE":"U","NORAD_CAT_ID":54674,"ELEMENT_SET_NO":999,"REV_AT_EPOCH":15254,"BSTAR":5.4818031e-5,"MEAN_MOTION_DOT":3.6e-7,"MEAN_MOTION_DDOT":0},{"OBJECT_NAME":"ONEWEB-0612","OBJECT_ID":"2022-166AK","EPOCH":"2026-01-25T01:17:03.615648","MEAN_MOTION":13.21826007,"ECCENTRICITY":0.00018104,"INCLINATION":87.9205,"RA_OF_ASC_NODE":272.5163,"ARG_OF_PERICENTER":76.0446,"MEAN_ANOMALY":284.0889,"EPHEMERIS_TYPE":0,"CLASSIFICATION_TYPE":"U","NORAD_CAT_ID":54675,"ELEMENT_SET_NO":999,"REV_AT_EPOCH":15252,"BSTAR":0.0016619933,"MEAN_MOTION_DOT":6.99e-6,"MEAN_MOTION_DDOT":0}]
